# From MPEC 2022-TA0
C/2018 U1 (Lemmon),h,11/03.1729/2021,108.3135,75.4879,180.4773,1.001540,4.993001,2000,5.0,4.0
# From MPC114604
C/2018 V1 (Machholz-Fujikawa-Iwamoto),h,12/02.8275/2018,144.0897,129.0341,89.0730,1.000350,0.390015,2000,12.0,4.0
# From MPC115884
C/2018 V2 (ATLAS),e,159.1675,357.0772,319.0052,25.05652,0.0078582,0.90086441,11.5088,11/29.0/2022,2000,g 15.0,4.0
# From MPC114604
P/2018 VN2 (Leonard),e,18.2631,226.4564,138.8424,4.063940,0.1203049,0.47892683,196.7892,11/29.0/2022,2000,g 15.0,4.0
# From MPEC 2022-VC5
A/2018 V3,e,164.9666,308.6929,3.6032,127.1167,0.0006877,0.98945049,0.0000,09/09.1110/2019,2000,g 15.7,2.0
# From MPEC 2022-M21
C/2018 V4 (Africano),e,69.0214,78.2904,359.9396,200.9071,0.0003461,0.98409777,0.0000,03/01.4919/2019,2000,g 12.5,4.0
# From MPEC 2021-P47
P/2018 V5 (Trujillo-Sheppard),e,10.5890,171.2866,260.6612,8.959577,0.0367513,0.47546468,55.7672,11/29.0/2022,2000,g 12.5,4.0
# From MPEC 2021-P47
C/2018 W1 (Catalina),e,83.3655,233.6526,251.2146,21.68111,0.0097630,0.93731053,12.6641,11/29.0/2022,2000,g 15.5,2.0
# From MPEC 2021-P47
C/2018 W2 (Africano),h,09/05.3490/2019,116.6263,181.8163,158.0571,1.000545,1.460185,2000,9.5,4.0
# From MPEC 2022-Q17
A/2018 W3,e,104.8142,251.6701,313.9667,688.6193,0.0000545,0.99376928,0.0000,04/13.0530/2021,2000,g 10.5,2.0
# From MPC119996
C/2018 X2 (Fitzsimmons),e,23.0712,340.8169,161.9583,140.0728,0.0005945,0.98485228,0.0000,07/08.2183/2019,2000,g 12.0,4.0
# From MPC114604
C/2018 X3 (PANSTARRS),e,43.4035,78.8361,359.7402,12.37244,0.0226475,0.78245975,32.3626,11/29.0/2022,2000,g 14.5,4.0
# From MPC118842
C/2018 Y1 (Iwamoto),e,160.4066,147.4945,357.9273,131.3974,0.0006544,0.99023129,0.0000,02/06.1074/2019,2000,g 11.5,4.0
# From MPC114605
P/2018 Y2 (Africano),e,11.6836,297.2172,162.2427,7.453663,0.0484339,0.47911018,69.1307,11/29.0/2022,2000,g 11.5,4.0
# From MPC114605
P/2019 A1 (PANSTARRS),e,13.7494,312.2723,150.7090,5.116982,0.0851497,0.56897455,128.5842,11/29.0/2022,2000,g 16.0,4.0
# From MPEC 2021-P47
P/2019 A2 (ATLAS),e,14.8605,139.4538,323.8642,5.714790,0.0721446,0.38197960,106.0273,11/29.0/2022,2000,g 10.5,4.0
# From MPEC 2022-M21
P/2019 A3 (PANSTARRS),e,15.3750,31.2935,325.6332,3.144685,0.1767415,0.26608998,278.7977,11/29.0/2022,2000,g 16.0,4.0
# From MPEC 2022-L66
P/2019 A4 (PANSTARRS),e,13.3064,119.2429,342.9771,2.613380,0.2332922,0.08706937,338.0318,11/29.0/2022,2000,g 15.0,4.0
# From MPEC 2021-P47
C/2019 A5 (PANSTARRS),e,67.5544,146.6146,355.8222,21.49714,0.0098886,0.70619684,12.5699,11/29.0/2022,2000,g  9.5,4.0
# From MPC114605
P/2019 A6 (Lemmon-PANSTARRS),e,33.2588,280.2089,156.1827,5.358069,0.0794679,0.63976483,123.3434,11/29.0/2022,2000,g 16.0,4.0
# From MPC115884
P/2019 A8 (PANSTARRS),e,2.1905,114.4743,65.9747,4.273845,0.1115516,0.24268260,177.4327,11/29.0/2022,2000,g 16.0,4.0
# From MPC118842
C/2019 A9 (PANSTARRS),e,84.2302,278.4002,237.9249,39.15620,0.0040226,0.96345564,4.9157,11/29.0/2022,2000,g 15.0,4.0
# From MPEC 2022-L66
C/2019 B1 (Africano),e,123.3959,290.3888,174.7758,138.5609,0.0006043,0.98847308,0.0000,03/18.8571/2019,2000,g 16.0,4.0
# From MPC115885
P/2019 B2 (Groeller),e,17.0224,175.7449,1.0563,3.910333,0.1274628,0.36189359,162.8166,11/29.0/2022,2000,g 14.5,4.0
# From MPEC 2022-WD2
C/2019 B3 (PANSTARRS),h,01/20.4342/2021,66.5358,358.4362,263.9605,1.000435,6.824776,2000,5.5,4.0
# From MPEC 2021-P47
C/2019 C1 (ATLAS),e,36.0485,212.3900,319.0995,651.1844,0.0000593,0.98989899,0.0000,05/04.5007/2020,2000,g 10.0,4.0
# From MPEC 2022-O08
C/2019 D1 (Flewelling),e,34.0198,231.6717,70.6578,142.9210,0.0005768,0.98891417,0.0000,05/11.4263/2019,2000,g 13.0,4.0
# From MPEC 2022-WD2
C/2019 E3 (ATLAS),h,11/14.6534/2023,84.2973,347.2514,280.6745,1.000389,10.313181,2000,2.5,4.0
# From MPEC 2022-WD2
C/2019 F1 (ATLAS-Africano),h,06/23.1041/2021,54.2014,38.6844,251.2369,1.003573,3.598541,2000,5.5,4.0
# From MPEC 2021-P47
C/2019 F2 (ATLAS),e,19.2531,175.4983,11.5896,16.64167,0.0145181,0.86505453,17.1001,11/29.0/2022,2000,g 12.0,4.0
# From MPEC 2021-P47
A/2019 G2,e,159.2121,208.1577,82.6072,465.7035,0.0000981,0.99507640,0.0000,12/08.9334/2019,2000,g 16.5,2.0
# From MPEC 2022-VC5
A/2019 G3,e,156.8092,49.8799,161.9329,17.21589,0.0137978,0.83442752,20.0851,11/29.0/2022,2000,g 17.1,2.0
# From MPEC 2022-P82
C/2019 G4 (PANSTARRS),h,09/15.9436/2018,138.3635,130.4573,287.7979,1.001910,5.850863,2000,9.5,4.0
# From MPC114607
P/2019 GG21 (PANSTARRS),e,6.0852,340.5622,208.6064,7.470298,0.0482722,0.47194970,62.6921,11/29.0/2022,2000,g 12.0,4.0
# From MPEC 2022-M21
C/2019 H1 (NEOWISE),e,104.4840,269.2554,19.3485,249.1140,0.0002507,0.99259124,0.0000,04/27.9908/2019,2000,g 15.5,4.0
# From MPEC 2022-O08
C/2019 J1 (Lemmon),e,24.5442,98.1412,167.7719,68.39804,0.0017424,0.96367905,2.3188,11/29.0/2022,2000,g 12.0,4.0
# From MPEC 2021-R75
C/2019 J2 (Palomar),e,105.2303,25.5564,98.7113,161.6257,0.0004797,0.98933707,0.0000,07/20.1517/2019,2000,g 13.0,4.0
# From MPC117071
C/2019 J3 (ATLAS),h,08/02.3435/2019,131.3685,270.5870,16.6197,1.000687,2.372560,2000,13.5,4.0
# From MPEC 2022-M21
C/2019 JU6 (ATLAS),e,148.3298,21.7626,95.0111,271738,0.0000000,0.99999247,0.0000,06/01.6487/2019,2000,g 14.5,4.0
# From MPEC 2022-O08
C/2019 K1 (ATLAS),e,87.0727,73.3499,265.7184,24299,0.0000003,0.99991715,0.0000,02/12.8634/2020,2000,g 10.0,4.0
# From MPC119997
C/2019 K4 (Ye),e,105.2966,180.1411,139.8477,1338,0.0000201,0.99830676,0.0000,06/15.7587/2019,2000,g 12.5,4.0
# From MPEC 2021-P47
C/2019 K5 (Young),e,15.3193,177.1265,175.1117,166.8467,0.0004573,0.98777208,0.0000,06/23.0685/2019,2000,g 13.0,4.0
# From MPEC 2021-P47
C/2019 K6 (PANSTARRS),e,132.3826,42.9874,187.6121,1731,0.0000137,0.99773128,0.0000,05/20.1356/2020,2000,g 11.5,4.0
# From MPEC 2022-TA0
C/2019 K7 (Smith),h,06/17.5329/2020,103.5377,307.9520,27.3924,1.000790,4.478036,2000,6.0,4.0
# From MPEC 2021-R75
C/2019 K8 (ATLAS),e,93.1638,291.0371,85.3848,2732,0.0000069,0.99883127,0.0000,07/21.7779/2019,2000,g 11.5,4.0
# From MPC118095
C/2019 L1 (PANSTARRS),e,9.9826,254.4293,50.0444,9.842467,0.0319189,0.70559954,38.4947,11/29.0/2022,2000,g 13.5,4.0
# From MPC115886
C/2019 L2 (NEOWISE),e,152.2109,12.5482,18.8249,24.98731,0.0078909,0.93494625,10.5519,11/29.0/2022,2000,g 16.0,4.0
# From MPEC 2022-UY9
P/2019 LD2 (ATLAS),e,11.6227,179.5969,120.7728,5.229120,0.0824254,0.12690623,81.6356,11/29.0/2022,2000,g  8.5,4.0
# From MPEC 2022-WD2
C/2019 L3 (ATLAS),h,01/09.6297/2022,48.3534,290.7844,171.6127,1.001935,3.554414,2000,4.5,4.0
# From MPC118095
C/2019 LB7 (Kleyna),e,164.2918,3.8842,336.5350,34.61360,0.0048399,0.92808515,6.5034,11/29.0/2022,2000,g 17.0,4.0
# From MPEC 2022-O08
P/2019 M2 (ATLAS),e,12.2740,307.6142,332.5646,3.028417,0.1870168,0.64756928,234.8711,11/29.0/2022,2000,g 21.2,4.0
# From MPC118095
C/2019 M3 (ATLAS),e,99.4981,154.9186,87.8864,10861,0.0000009,0.99977709,0.0000,01/01.2506/2019,2000,g 12.2,4.0
# From MPEC 2022-R68
C/2019 N1 (ATLAS),e,82.4295,13.5737,193.4335,2023,0.0000108,0.99915697,0.0000,12/01.5067/2020,2000,g  7.5,4.0
# From MPEC 2022-A21
C/2019 NJ3 (Lemmon),h,10/22.8440/2020,99.4285,142.4641,246.9047,1.002296,4.362739,2000,9.0,4.0
# From MPEC 2022-VC5
A/2019 O2,e,93.3036,48.2678,129.6506,57.71722,0.0022477,0.83223803,359.7090,11/29.0/2022,2000,g  9.5,2.0
# From MPEC 2022-WD2
C/2019 O3 (Palomar),h,03/09.4237/2021,89.8198,300.4082,60.1207,1.004241,8.820669,2000,3.5,4.0
# From MPEC 2021-P47
A/2019 O4,e,115.0954,354.9080,61.8978,33.22250,0.0051470,0.89024140,5.2619,11/29.0/2022,2000,g 15.5,2.0
# From MPEC 2021-N06
C/2019 Q1 (Lemmon),h,07/20.4911/2020,155.7276,42.4647,56.1726,1.000400,5.001584,2000,8.5,4.0
# From MPC117072
A/2019 Q2,e,159.0317,188.0048,176.3639,57.63575,0.0022525,0.97810650,0.0000,07/22.0300/2019,2000,g 18.0,2.0
# From MPC117072
C/2019 Q3 (PANSTARRS),h,08/21.4947/2018,65.5327,151.3310,152.7837,1.002806,7.264073,2000,8.5,4.0
# From MPC117072
P/2019 S2 (PANSTARRS),e,10.4674,93.1403,217.1356,4.741697,0.0954560,0.20599469,131.3178,11/29.0/2022,2000,g 13.5,4.0
# From MPEC 2022-CN4
P/2019 S3 (PANSTARRS),e,8.6939,150.1571,213.0361,3.415371,0.1561519,0.47123035,185.8229,11/29.0/2022,2000,g 18.3,4.0
# From MPEC 2021-S45
C/2019 S4 (Lemmon),e,92.0675,63.1497,71.3731,232.1009,0.0002787,0.98516779,0.0000,04/07.9572/2020,2000,g 11.0,4.0
# From MPEC 2022-L66
A/2019 T1,e,120.8775,6.9446,91.0731,38.66507,0.0040995,0.88925499,2.8011,11/29.0/2022,2000,g 13.0,2.0
# From MPEC 2022-L66
C/2019 T2 (Lemmon),e,111.4830,155.6466,239.4268,3395,0.0000050,0.99922046,0.0000,04/22.4626/2021,2000,g  9.0,4.0
# From MPEC 2022-WD2
C/2019 T3 (ATLAS),e,121.8467,139.5316,112.4284,3067,0.0000058,0.99805993,0.0000,03/04.0564/2021,2000,g  6.8,4.0
# From MPEC 2022-R68
C/2019 T4 (ATLAS),e,53.6315,199.9391,351.1859,979.3552,0.0000322,0.99566829,0.0000,06/09.0411/2022,2000,g  5.0,4.0
# From MPEC 2021-P47
P/2019 T5 (ATLAS),e,33.4756,247.6339,189.5617,7.996149,0.0435896,0.80941378,52.9799,11/29.0/2022,2000,g 15.0,4.0
# From MPEC 2021-P47
P/2019 T6 (PANSTARRS),e,18.6995,71.2366,328.9704,5.436799,0.0777480,0.62301618,86.8156,11/29.0/2022,2000,g 15.5,4.0
# From MPC118096
P/2019 U4 (PANSTARRS),e,11.7000,200.0007,181.0140,3.520284,0.1492236,0.47598642,174.1058,11/29.0/2022,2000,g 19.0,4.0
# From MPEC 2022-WD2
C/2019 U5 (PANSTARRS),h,03/29.8798/2023,113.5212,2.6371,181.5037,1.001501,3.624132,2000,4.5,4.0
# From MPEC 2022-H04
C/2019 U6 (Lemmon),e,60.9854,235.7428,329.6030,351.5369,0.0001495,0.99740011,0.0000,06/18.5168/2020,2000,g 10.0,4.0
# From MPEC 2022-N37
C/2019 V1 (Borisov),e,61.8932,83.1741,51.1659,1492,0.0000171,0.99792558,0.0000,07/16.3751/2020,2000,g 11.0,4.0
# From MPEC 2022-L66
P/2019 V2 (Groeller),e,11.8083,189.1853,335.8128,7.501887,0.0479676,0.33112613,37.0355,11/29.0/2022,2000,g 10.0,4.0
# From MPC119998
P/2019 W1 (PANSTARRS),e,23.4736,35.3772,18.7024,4.549297,0.1015752,0.26696610,132.0887,11/29.0/2022,2000,g 12.9,4.0
# From MPEC 2021-P47
P/2019 X1 (Pruyne),e,10.2494,43.6668,36.7878,6.173498,0.0642550,0.30346693,78.7989,11/29.0/2022,2000,g 10.4,4.0
# From MPC119999
